STARLINK-34135          
1 63964U 25099N   26089.19717089  .00032627  00000+0  11896-2 0  9996
2 63964  42.9994  60.3154 0000964 263.5056  96.5686 15.27589696 50476
STARLINK-34147          
1 63965U 25099P   26089.18946147  .00043510  00000+0  15794-2 0  9999
2 63965  42.9998  60.2545 0000541 150.0511 210.0371 15.27621175 50474
STARLINK-33960          
1 63966U 25099Q   26089.18560653  .00037277  00000+0  13568-2 0  9994
2 63966  43.0010  60.2242 0001067 254.1756 105.8978 15.27591893 50474
STARLINK-34153          
1 63967U 25099R   26088.98302127  .00029670  00000+0  10825-2 0  9993
2 63967  42.9992  61.2795 0001355 186.2840 173.7994 15.27607682 50448
STARLINK-33963          
1 63968U 25099S   26088.20223948  .00032232  00000+0  11742-2 0  9999
2 63968  42.9999  65.7402 0001137 175.8972 184.1889 15.27621783 50322
STARLINK-34112          
1 63969U 25099T   26088.97916711  .00036599  00000+0  13315-2 0  9999
2 63969  42.9973  61.2563 0001278 185.3562 174.7277 15.27615516 50447
STARLINK-34084          
1 63970U 25099U   26088.97530574  .00034588  00000+0  12606-2 0  9998
2 63970  43.0038  61.2270 0001384 254.9435 105.1264 15.27577120 50440
STARLINK-34138          
1 63971U 25099V   26089.20150697  .00031356  00000+0  11437-2 0  9991
2 63971  42.9996  56.8809 0001261 270.1379  89.9328 15.27594119 50516
STARLINK-34115          
1 63972U 25099W   26089.19122843  .00018703  00000+0  68704-3 0  9993
2 63972  43.0008  56.8083 0001186 247.1740 112.8986 15.27599844 50515
STARLINK-34028          
1 63973U 25099X   26088.95923812  .00033244  00000+0  12128-2 0  9997
2 63973  43.0023  58.5028 0001389 257.7780 102.2916 15.27561894 50472
STARLINK-33942          
1 63974U 25099Y   26088.95538284  .00015697  00000+0  57851-3 0  9998
2 63974  43.0003  58.4735 0000998 253.7551 106.3191 15.27591333 50473
STARLINK-34139          
1 63975U 25099Z   26089.21307253  .00026385  00000+0  96450-3 0  9993
2 63975  43.0021  56.9683 0001130 274.8174  85.2549 15.27593498 50424
STARLINK-34090          
1 63976U 25099AA  26089.20921737  .00024047  00000+0  88023-3 0  9992
2 63976  43.0010  56.9374 0000832 268.3420  91.7336 15.27590936 50420
STARLINK-34105          
1 63977U 25099AB  26089.20663851  .00024541  00000+0  89782-3 0  9995
2 63977  43.0002  56.9184 0000403 202.3094 157.7741 15.27598988 50428
STARLINK-33642          
1 63978U 25099AC  26089.19894367  .00036411  00000+0  13252-2 0  9999
2 63978  43.0009  56.8583 0001801 251.5018 108.5638 15.27603505 50424
STARLINK-34045          
1 63979U 25099AD  26089.19508179  .00025069  00000+0  91677-3 0  9998
2 63979  42.9886  56.8243 0002334 116.8139 243.2951 15.27602049 50425
STARLINK-33871          
1 63994U 25101A   26088.12324557  .00025607  00000+0  93610-3 0  9994
2 63994  43.0019 248.5322 0002746 273.9740  86.0797 15.27604243 49955
