[{"OBJECT_NAME":"STARLINK-34135","OBJECT_ID":"2025-099N","EPOCH":"2026-03-30T04:43:55.564896","MEAN_MOTION":15.27589696,"ECCENTRICITY":9.64e-5,"INCLINATION":42.9994,"RA_OF_ASC_NODE":60.3154,"ARG_OF_PERICENTER":263.5056,"MEAN_ANOMALY":96.5686,"EPHEMERIS_TYPE":0,"CLASSIFICATION_TYPE":"U","NORAD_CAT_ID":63964,"ELEMENT_SET_NO":999,"REV_AT_EPOCH":5047,"BSTAR":0.0011896,"MEAN_MOTION_DOT":0.00032627,"MEAN_MOTION_DDOT":0},{"OBJECT_NAME":"STARLINK-34147","OBJECT_ID":"2025-099P","EPOCH":"2026-03-30T04:32:49.471008","MEAN_MOTION":15.27621175,"ECCENTRICITY":5.41e-5,"INCLINATION":42.9998,"RA_OF_ASC_NODE":60.2545,"ARG_OF_PERICENTER":150.0511,"MEAN_ANOMALY":210.0371,"EPHEMERIS_TYPE":0,"CLASSIFICATION_TYPE":"U","NORAD_CAT_ID":63965,"ELEMENT_SET_NO":999,"REV_AT_EPOCH":5047,"BSTAR":0.0015794,"MEAN_MOTION_DOT":0.0004351,"MEAN_MOTION_DDOT":0},{"OBJECT_NAME":"STARLINK-33960","OBJECT_ID":"2025-099Q","EPOCH":"2026-03-30T04:27:16.404192","MEAN_MOTION":15.27591893,"ECCENTRICITY":0.0001067,"INCLINATION":43.001,"RA_OF_ASC_NODE":60.2242,"ARG_OF_PERICENTER":254.1756,"MEAN_ANOMALY":105.8978,"EPHEMERIS_TYPE":0,"CLASSIFICATION_TYPE":"U","NORAD_CAT_ID":63966,"ELEMENT_SET_NO":999,"REV_AT_EPOCH":5047,"BSTAR":0.0013568,"MEAN_MOTION_DOT":0.00037277,"MEAN_MOTION_DDOT":0},{"OBJECT_NAME":"STARLINK-34153","OBJECT_ID":"2025-099R","EPOCH":"2026-03-29T23:35:33.037728","MEAN_MOTION":15.27607682,"ECCENTRICITY":0.0001355,"INCLINATION":42.9992,"RA_OF_ASC_NODE":61.2795,"ARG_OF_PERICENTER":186.284,"MEAN_ANOMALY":173.7994,"EPHEMERIS_TYPE":0,"CLASSIFICATION_TYPE":"U","NORAD_CAT_ID":63967,"ELEMENT_SET_NO":999,"REV_AT_EPOCH":5044,"BSTAR":0.0010825,"MEAN_MOTION_DOT":0.0002967,"MEAN_MOTION_DDOT":0},{"OBJECT_NAME":"STARLINK-33963","OBJECT_ID":"2025-099S","EPOCH":"2026-03-29T04:51:13.491072","MEAN_MOTION":15.27621783,"ECCENTRICITY":0.0001137,"INCLINATION":42.9999,"RA_OF_ASC_NODE":65.7402,"ARG_OF_PERICENTER":175.8972,"MEAN_ANOMALY":184.1889,"EPHEMERIS_TYPE":0,"CLASSIFICATION_TYPE":"U","NORAD_CAT_ID":63968,"ELEMENT_SET_NO":999,"REV_AT_EPOCH":5032,"BSTAR":0.0011742,"MEAN_MOTION_DOT":0.00032232,"MEAN_MOTION_DDOT":0},{"OBJECT_NAME":"STARLINK-34112","OBJECT_ID":"2025-099T","EPOCH":"2026-03-29T23:30:00.038304","MEAN_MOTION":15.27615516,"ECCENTRICITY":0.0001278,"INCLINATION":42.9973,"RA_OF_ASC_NODE":61.2563,"ARG_OF_PERICENTER":185.3562,"MEAN_ANOMALY":174.7277,"EPHEMERIS_TYPE":0,"CLASSIFICATION_TYPE":"U","NORAD_CAT_ID":63969,"ELEMENT_SET_NO":999,"REV_AT_EPOCH":5044,"BSTAR":0.0013315,"MEAN_MOTION_DOT":0.00036599,"MEAN_MOTION_DDOT":0},{"OBJECT_NAME":"STARLINK-34084","OBJECT_ID":"2025-099U","EPOCH":"2026-03-29T23:24:26.415936","MEAN_MOTION":15.2757712,"ECCENTRICITY":0.0001384,"INCLINATION":43.0038,"RA_OF_ASC_NODE":61.227,"ARG_OF_PERICENTER":254.9435,"MEAN_ANOMALY":105.1264,"EPHEMERIS_TYPE":0,"CLASSIFICATION_TYPE":"U","NORAD_CAT_ID":63970,"ELEMENT_SET_NO":999,"REV_AT_EPOCH":5044,"BSTAR":0.0012606,"MEAN_MOTION_DOT":0.00034588,"MEAN_MOTION_DDOT":0},{"OBJECT_NAME":"STARLINK-34138","OBJECT_ID":"2025-099V","EPOCH":"2026-03-30T04:50:10.202208","MEAN_MOTION":15.27594119,"ECCENTRICITY":0.0001261,"INCLINATION":42.9996,"RA_OF_ASC_NODE":56.8809,"ARG_OF_PERICENTER":270.1379,"MEAN_ANOMALY":89.9328,"EPHEMERIS_TYPE":0,"CLASSIFICATION_TYPE":"U","NORAD_CAT_ID":63971,"ELEMENT_SET_NO":999,"REV_AT_EPOCH":5051,"BSTAR":0.0011437,"MEAN_MOTION_DOT":0.00031356,"MEAN_MOTION_DDOT":0},{"OBJECT_NAME":"STARLINK-34115","OBJECT_ID":"2025-099W","EPOCH":"2026-03-30T04:35:22.136352","MEAN_MOTION":15.27599844,"ECCENTRICITY":0.0001186,"INCLINATION":43.0008,"RA_OF_ASC_NODE":56.8083,"ARG_OF_PERICENTER":247.174,"MEAN_ANOMALY":112.8986,"EPHEMERIS_TYPE":0,"CLASSIFICATION_TYPE":"U","NORAD_CAT_ID":63972,"ELEMENT_SET_NO":999,"REV_AT_EPOCH":5051,"BSTAR":0.00068704,"MEAN_MOTION_DOT":0.00018703,"MEAN_MOTION_DDOT":0},{"OBJECT_NAME":"STARLINK-34028","OBJECT_ID":"2025-099X","EPOCH":"2026-03-29T23:01:18.173568","MEAN_MOTION":15.27561894,"ECCENTRICITY":0.0001389,"INCLINATION":43.0023,"RA_OF_ASC_NODE":58.5028,"ARG_OF_PERICENTER":257.778,"MEAN_ANOMALY":102.2916,"EPHEMERIS_TYPE":0,"CLASSIFICATION_TYPE":"U","NORAD_CAT_ID":63973,"ELEMENT_SET_NO":999,"REV_AT_EPOCH":5047,"BSTAR":0.0012128,"MEAN_MOTION_DOT":0.00033244,"MEAN_MOTION_DDOT":0},{"OBJECT_NAME":"STARLINK-33942","OBJECT_ID":"2025-099Y","EPOCH":"2026-03-29T22:55:45.077376","MEAN_MOTION":15.27591333,"ECCENTRICITY":9.98e-5,"INCLINATION":43.0003,"RA_OF_ASC_NODE":58.4735,"ARG_OF_PERICENTER":253.7551,"MEAN_ANOMALY":106.3191,"EPHEMERIS_TYPE":0,"CLASSIFICATION_TYPE":"U","NORAD_CAT_ID":63974,"ELEMENT_SET_NO":999,"REV_AT_EPOCH":5047,"BSTAR":0.00057851,"MEAN_MOTION_DOT":0.00015697,"MEAN_MOTION_DDOT":0},{"OBJECT_NAME":"STARLINK-34139","OBJECT_ID":"2025-099Z","EPOCH":"2026-03-30T05:06:49.466592","MEAN_MOTION":15.27593498,"ECCENTRICITY":0.000113,"INCLINATION":43.0021,"RA_OF_ASC_NODE":56.9683,"ARG_OF_PERICENTER":274.8174,"MEAN_ANOMALY":85.2549,"EPHEMERIS_TYPE":0,"CLASSIFICATION_TYPE":"U","NORAD_CAT_ID":63975,"ELEMENT_SET_NO":999,"REV_AT_EPOCH":5042,"BSTAR":0.0009645,"MEAN_MOTION_DOT":0.00026385,"MEAN_MOTION_DDOT":0},{"OBJECT_NAME":"STARLINK-34090","OBJECT_ID":"2025-099AA","EPOCH":"2026-03-30T05:01:16.380768","MEAN_MOTION":15.27590936,"ECCENTRICITY":8.32e-5,"INCLINATION":43.001,"RA_OF_ASC_NODE":56.9374,"ARG_OF_PERICENTER":268.342,"MEAN_ANOMALY":91.7336,"EPHEMERIS_TYPE":0,"CLASSIFICATION_TYPE":"U","NORAD_CAT_ID":63976,"ELEMENT_SET_NO":999,"REV_AT_EPOCH":5042,"BSTAR":0.00088023,"MEAN_MOTION_DOT":0.00024047,"MEAN_MOTION_DDOT":0},{"OBJECT_NAME":"STARLINK-34105","OBJECT_ID":"2025-099AB","EPOCH":"2026-03-30T04:57:33.567264","MEAN_MOTION":15.27598988,"ECCENTRICITY":4.03e-5,"INCLINATION":43.0002,"RA_OF_ASC_NODE":56.9184,"ARG_OF_PERICENTER":202.3094,"MEAN_ANOMALY":157.7741,"EPHEMERIS_TYPE":0,"CLASSIFICATION_TYPE":"U","NORAD_CAT_ID":63977,"ELEMENT_SET_NO":999,"REV_AT_EPOCH":5042,"BSTAR":0.00089782,"MEAN_MOTION_DOT":0.00024541,"MEAN_MOTION_DDOT":0},{"OBJECT_NAME":"STARLINK-33642","OBJECT_ID":"2025-099AC","EPOCH":"2026-03-30T04:46:28.733088","MEAN_MOTION":15.27603505,"ECCENTRICITY":0.0001801,"INCLINATION":43.0009,"RA_OF_ASC_NODE":56.8583,"ARG_OF_PERICENTER":251.5018,"MEAN_ANOMALY":108.5638,"EPHEMERIS_TYPE":0,"CLASSIFICATION_TYPE":"U","NORAD_CAT_ID":63978,"ELEMENT_SET_NO":999,"REV_AT_EPOCH":5042,"BSTAR":0.0013252,"MEAN_MOTION_DOT":0.00036411,"MEAN_MOTION_DDOT":0},{"OBJECT_NAME":"STARLINK-34045","OBJECT_ID":"2025-099AD","EPOCH":"2026-03-30T04:40:55.066656","MEAN_MOTION":15.27602049,"ECCENTRICITY":0.0002334,"INCLINATION":42.9886,"RA_OF_ASC_NODE":56.8243,"ARG_OF_PERICENTER":116.8139,"MEAN_ANOMALY":243.2951,"EPHEMERIS_TYPE":0,"CLASSIFICATION_TYPE":"U","NORAD_CAT_ID":63979,"ELEMENT_SET_NO":999,"REV_AT_EPOCH":5042,"BSTAR":0.00091677,"MEAN_MOTION_DOT":0.00025069,"MEAN_MOTION_DDOT":0},{"OBJECT_NAME":"STARLINK-33871","OBJECT_ID":"2025-101A","EPOCH":"2026-03-29T02:57:28.417248","MEAN_MOTION":15.27604243,"ECCENTRICITY":0.0002746,"INCLINATION":43.0019,"RA_OF_ASC_NODE":248.5322,"ARG_OF_PERICENTER":273.974,"MEAN_ANOMALY":86.0797,"EPHEMERIS_TYPE":0,"CLASSIFICATION_TYPE":"U","NORAD_CAT_ID":63994,"ELEMENT_SET_NO":999,"REV_AT_EPOCH":4995,"BSTAR":0.0009361,"MEAN_MOTION_DOT":0.00025607,"MEAN_MOTION_DDOT":0}]
